OBJECT_NAME,OBJECT_ID,EPOCH,MEAN_MOTION,ECCENTRICITY,INCLINATION,RA_OF_ASC_NODE,ARG_OF_PERICENTER,MEAN_ANOMALY,EPHEMERIS_TYPE,CLASSIFICATION_TYPE,NORAD_CAT_ID,ELEMENT_SET_NO,REV_AT_EPOCH,BSTAR,MEAN_MOTION_DOT,MEAN_MOTION_DDOT
STARLINK-36933,2026-114Q,2026-06-07T18:00:04.999104,15.80874769,.0000963,53.1586,249.4372,73.2946,183.1535,0,U,69196,999,329,.14435E-3,.27885E-3,0
STARLINK-37419,2026-114R,2026-06-07T18:00:04.999104,15.80865072,.0001209,53.1585,249.4193,87.9848,177.0044,0,U,69197,999,329,.10047E-3,.19166E-3,0
STARLINK-37321,2026-114S,2026-06-07T18:00:04.999104,15.80844500,.000114,53.1587,249.4113,84.8085,184.4607,0,U,69198,999,329,.47525E-3,.94001E-3,0
STARLINK-37406,2026-114T,2026-06-07T18:00:04.999104,15.80785644,.0000763,53.1583,249.4024,75.5693,197.9311,0,U,69199,999,329,.12089E-2,.243771E-2,0
STARLINK-37761,2026-114U,2026-06-07T18:00:04.999104,15.80865297,.0001122,53.1585,249.3929,69.9326,207.8702,0,U,69200,999,329,.28373E-3,.55642E-3,0
STARLINK-37754,2026-114V,2026-06-07T18:00:04.999104,15.80880924,.0001013,53.1581,249.3820,67.6025,215.5728,0,U,69201,999,329,-.6073E-4,-.12671E-3,0
STARLINK-37649,2026-114W,2026-06-07T18:00:04.999104,15.80877647,.0001046,53.1583,249.3759,82.8790,203.4657,0,U,69202,999,329,-.25927E-4,-.5813E-4,0
STARLINK-37604,2026-114X,2026-06-07T18:00:04.999104,15.80875665,.0000927,53.1583,249.3668,77.7445,212.8671,0,U,69203,999,329,.87712E-4,.16648E-3,0
STARLINK-37669,2026-114Y,2026-06-07T18:00:04.999104,15.80873834,.0001162,53.1584,249.3577,84.1800,210.7056,0,U,69204,999,329,.17713E-3,.34401E-3,0
STARLINK-37691,2026-114Z,2026-06-07T18:00:04.999104,15.79711944,.0000958,53.1587,249.3319,90.1288,217.2397,0,U,69205,999,329,-.1156E-1,-.188886E-1,0
STARLINK-37671,2026-114AA,2026-06-07T18:00:04.999104,15.80898815,.0000791,53.1581,249.3401,79.9676,223.4583,0,U,69206,999,329,-.1244E-3,-.25208E-3,0
STARLINK-37647,2026-114AB,2026-06-07T18:00:04.999104,15.80869199,.0001015,53.1582,249.3490,101.1682,197.9927,0,U,69207,999,329,.14109E-3,.2723E-3,0
STARLINK-37562,2026-114AC,2026-06-07T18:00:04.999104,15.80861288,.0001032,53.1580,249.3222,77.8932,234.0821,0,U,69208,999,329,.25287E-3,.49468E-3,0
STARLINK-37682,2026-114AD,2026-06-07T18:00:04.999104,15.80861078,.0001023,53.1579,249.3132,84.5081,231.7380,0,U,69209,999,329,.37432E-3,.73773E-3,0
STARLINK-37402,2026-114AE,2026-06-07T18:00:04.999104,15.80902145,.0000793,53.1580,249.3044,92.7351,227.7743,0,U,69210,999,329,-.13967E-3,-.2821E-3,0
STARLINK-37613,2026-115A,2026-06-07T18:00:04.999104,15.74925045,.0001637,97.2841,175.6820,81.4910,324.2579,0,U,69211,999,317,-.20417E-1,-.26237E-1,0
STARLINK-37713,2026-115B,2026-06-07T16:12:12.240288,15.80904161,.0000945,97.2835,175.6109,74.8365,285.3008,0,U,69212,999,318,.12098E-2,.239014E-2,0
STARLINK-37716,2026-115C,2026-06-07T17:44:26.467008,15.80907739,.0001269,97.2837,175.6771,99.2989,260.8422,0,U,69213,999,319,.12183E-2,.240773E-2,0
STARLINK-37620,2026-115D,2026-06-07T18:00:04.999104,15.70156246,.000147,97.2844,175.6761,98.3166,296.0046,0,U,69214,999,317,-.21698E-1,-.2267457E-1,0
STARLINK-37700,2026-115E,2026-06-07T18:00:04.999104,15.60169451,.0001499,97.2846,175.6335,104.6884,187.8497,0,U,69215,999,317,-.35813E-1,-.2527859E-1,0
STARLINK-37766,2026-115F,2026-06-07T19:11:16.093248,15.80916598,.0001244,97.2836,175.7481,107.5499,252.5905,0,U,69216,999,320,.10795E-2,.212723E-2,0
STARLINK-37763,2026-115G,2026-06-07T14:36:53.413056,15.80884293,.0001001,97.2833,175.5471,112.5324,247.6050,0,U,69217,999,317,.94583E-3,.18551E-2,0
STARLINK-37724,2026-115H,2026-06-07T19:09:08.730144,15.80915901,.000076,97.2844,175.7502,91.0157,269.1198,0,U,69218,999,320,.12749E-2,.252417E-2,0
STARLINK-37758,2026-115J,2026-06-07T19:04:31.693728,15.80897597,.0001244,97.2838,175.7554,97.4487,262.6923,0,U,69219,999,320,.10351E-2,.203579E-2,0
STARLINK-37201,2026-115K,2026-06-07T17:35:09.047904,15.80892614,.000106,97.2843,175.6858,121.3379,238.7993,0,U,69220,999,319,.109E-2,.214619E-2,0
STARLINK-37728,2026-115L,2026-06-07T19:02:49.188768,15.80933639,.0001153,97.2843,175.7569,87.4235,272.7165,0,U,69221,999,320,.13583E-2,.269682E-2,0
STARLINK-37760,2026-115M,2026-06-07T17:35:36.853152,15.80901455,.0001323,97.2841,175.6856,120.1388,240.0011,0,U,69222,999,319,.11251E-2,.221806E-2,0
STARLINK-37759,2026-115N,2026-06-07T14:28:19.550784,15.80869443,.0000778,97.2838,175.5558,130.7462,229.3874,0,U,69223,999,317,.78007E-3,.152283E-2,0
STARLINK-37725,2026-115P,2026-06-07T16:00:18.152064,15.80912920,.0001652,97.2840,175.6222,72.0447,288.1001,0,U,69224,999,318,.13327E-2,.264185E-2,0
STARLINK-37770,2026-115Q,2026-06-07T17:32:19.290048,15.80901208,.0001427,97.2841,175.6882,107.1314,253.0111,0,U,69225,999,319,.11181E-2,.220387E-2,0
