[ {"name": "STARLINK-36933", "line1": "1 69196U 26114Q   26158.75005786  .00027885  00000+0  14435-3 0  9994", "line2": "2 69196  53.1586 249.4372 0000963  73.2946 183.1535 15.80874769  3296"}, {"name": "STARLINK-37419", "line1": "1 69197U 26114R   26158.75005786  .00019166  00000+0  10047-3 0  9993", "line2": "2 69197  53.1585 249.4193 0001209  87.9848 177.0044 15.80865072  3298"}, {"name": "STARLINK-37321", "line1": "1 69198U 26114S   26158.75005786  .00094001  00000+0  47525-3 0  9996", "line2": "2 69198  53.1587 249.4113 0001140  84.8085 184.4607 15.80844500  3296"}, {"name": "STARLINK-37406", "line1": "1 69199U 26114T   26158.75005786  .00243771  00000+0  12089-2 0  9993", "line2": "2 69199  53.1583 249.4024 0000763  75.5693 197.9311 15.80785644  3290"}, {"name": "STARLINK-37761", "line1": "1 69200U 26114U   26158.75005786  .00055642  00000+0  28373-3 0  9998", "line2": "2 69200  53.1585 249.3929 0001122  69.9326 207.8702 15.80865297  3296"}, {"name": "STARLINK-37754", "line1": "1 69201U 26114V   26158.75005786 -.00012671  00000+0 -60730-4 0  9990", "line2": "2 69201  53.1581 249.3820 0001013  67.6025 215.5728 15.80880924  3291"}, {"name": "STARLINK-37649", "line1": "1 69202U 26114W   26158.75005786 -.00005813  00000+0 -25927-4 0  9990", "line2": "2 69202  53.1583 249.3759 0001046  82.8790 203.4657 15.80877647  3294"}, {"name": "STARLINK-37604", "line1": "1 69203U 26114X   26158.75005786  .00016648  00000+0  87712-4 0  9997", "line2": "2 69203  53.1583 249.3668 0000927  77.7445 212.8671 15.80875665  3299"}, {"name": "STARLINK-37669", "line1": "1 69204U 26114Y   26158.75005786  .00034401  00000+0  17713-3 0  9998", "line2": "2 69204  53.1584 249.3577 0001162  84.1800 210.7056 15.80873834  3299"}, {"name": "STARLINK-37691", "line1": "1 69205U 26114Z   26158.75005786 -.01888860  00000+0 -11560-1 0  9990", "line2": "2 69205  53.1587 249.3319 0000958  90.1288 217.2397 15.79711944  3297"}, {"name": "STARLINK-37671", "line1": "1 69206U 26114AA  26158.75005786 -.00025208  00000+0 -12440-3 0  9999", "line2": "2 69206  53.1581 249.3401 0000791  79.9676 223.4583 15.80898815  3296"}, {"name": "STARLINK-37647", "line1": "1 69207U 26114AB  26158.75005786  .00027230  00000+0  14109-3 0  9999", "line2": "2 69207  53.1582 249.3490 0001015 101.1682 197.9927 15.80869199  3291"}, {"name": "STARLINK-37562", "line1": "1 69208U 26114AC  26158.75005786  .00049468  00000+0  25287-3 0  9996", "line2": "2 69208  53.1580 249.3222 0001032  77.8932 234.0821 15.80861288  3296"}, {"name": "STARLINK-37682", "line1": "1 69209U 26114AD  26158.75005786  .00073773  00000+0  37432-3 0  9998", "line2": "2 69209  53.1579 249.3132 0001023  84.5081 231.7380 15.80861078  3296"}, {"name": "STARLINK-37402", "line1": "1 69210U 26114AE  26158.75005786 -.00028210  00000+0 -13967-3 0  9995", "line2": "2 69210  53.1580 249.3044 0000793  92.7351 227.7743 15.80902145  3295"}, {"name": "STARLINK-37613", "line1": "1 69211U 26115A   26158.75005786 -.02623700  00000+0 -20417-1 0  9990", "line2": "2 69211  97.2841 175.6820 0001637  81.4910 324.2579 15.74925045  3176"}, {"name": "STARLINK-37713", "line1": "1 69212U 26115B   26158.67514167  .00239014  00000+0  12098-2 0  9994", "line2": "2 69212  97.2835 175.6109 0000945  74.8365 285.3008 15.80904161  3189"}, {"name": "STARLINK-37716", "line1": "1 69213U 26115C   26158.73919522  .00240773  00000+0  12183-2 0  9995", "line2": "2 69213  97.2837 175.6771 0001269  99.2989 260.8422 15.80907739  3193"}, {"name": "STARLINK-37620", "line1": "1 69214U 26115D   26158.75005786 -.02267457  00000+0 -21698-1 0  9998", "line2": "2 69214  97.2844 175.6761 0001470  98.3166 296.0046 15.70156246  3171"}, {"name": "STARLINK-37700", "line1": "1 69215U 26115E   26158.75005786 -.02527859  00000+0 -35813-1 0  9998", "line2": "2 69215  97.2846 175.6335 0001499 104.6884 187.8497 15.60169451  3178"}, {"name": "STARLINK-37766", "line1": "1 69216U 26115F   26158.79949182  .00212723  00000+0  10795-2 0  9990", "line2": "2 69216  97.2836 175.7481 0001244 107.5499 252.5905 15.80916598  3205"}, {"name": "STARLINK-37763", "line1": "1 69217U 26115G   26158.60895154  .00185510  00000+0  94583-3 0  9991", "line2": "2 69217  97.2833 175.5471 0001001 112.5324 247.6050 15.80884293  3172"}, {"name": "STARLINK-37724", "line1": "1 69218U 26115H   26158.79801771  .00252417  00000+0  12749-2 0  9998", "line2": "2 69218  97.2844 175.7502 0000760  91.0157 269.1198 15.80915901  3205"}, {"name": "STARLINK-37758", "line1": "1 69219U 26115J   26158.79481127  .00203579  00000+0  10351-2 0  9990", "line2": "2 69219  97.2838 175.7554 0001244  97.4487 262.6923 15.80897597  3204"}, {"name": "STARLINK-37201", "line1": "1 69220U 26115K   26158.73274361  .00214619  00000+0  10900-2 0  9993", "line2": "2 69220  97.2843 175.6858 0001060 121.3379 238.7993 15.80892614  3195"}, {"name": "STARLINK-37728", "line1": "1 69221U 26115L   26158.79362487  .00269682  00000+0  13583-2 0  9997", "line2": "2 69221  97.2843 175.7569 0001153  87.4235 272.7165 15.80933639  3206"}, {"name": "STARLINK-37760", "line1": "1 69222U 26115M   26158.73306543  .00221806  00000+0  11251-2 0  9999", "line2": "2 69222  97.2841 175.6856 0001323 120.1388 240.0011 15.80901455  3193"}, {"name": "STARLINK-37759", "line1": "1 69223U 26115N   26158.60300406  .00152283  00000+0  78007-3 0  9993", "line2": "2 69223  97.2838 175.5558 0000778 130.7462 229.3874 15.80869443  3176"}, {"name": "STARLINK-37725", "line1": "1 69224U 26115P   26158.66687676  .00264185  00000+0  13327-2 0  9995", "line2": "2 69224  97.2840 175.6222 0001652  72.0447 288.1001 15.80912920  3187"}, {"name": "STARLINK-37770", "line1": "1 69225U 26115Q   26158.73077882  .00220387  00000+0  11181-2 0  9998", "line2": "2 69225  97.2841 175.6882 0001427 107.1314 253.0111 15.80901208  3195"}]